IXPE                    
1 49954U 21121A   23301.10601379  .00006131  00000+0  47141-3 0  9994
2 49954   0.2313 319.1541 0009935  66.2364 334.6587 14.95252024102934
